{"type": "FeatureCollection", "features": [ {"type": "Feature", "properties": {"norad_id": 30320, "name": "FENGYUN 1C DEB", "group": "fengyun-1c-debris", "lat": -63.57436928637474, "lon": 62.281665206366526, "alt_km": 844.386286881645, "timestamp": "2025-12-09T23:33:24.130151+00:00", "meta": {"OBJECT_NAME": "FENGYUN 1C DEB", "OBJECT_ID": "1999-025AAH", "EPOCH": "2025-12-09T16:01:02.018208", "MEAN_MOTION": 13.98553792, "ECCENTRICITY": 0.00852737, "INCLINATION": 99.1881, "RA_OF_ASC_NODE": 42.96, "ARG_OF_PERICENTER": 303.0972, "MEAN_ANOMALY": 211.1696, "EPHEMERIS_TYPE": 0, "CLASSIFICATION_TYPE": "U", "NORAD_CAT_ID": 30320, "ELEMENT_SET_NO": 999, "REV_AT_EPOCH": 96364, "BSTAR": 0.00016478645, "MEAN_MOTION_DOT": 1.98e-06, "MEAN_MOTION_DDOT": 0}, "tle": {"line1": "1 30320U 99025AAH 25343.66738447  .00000198  00000+0  16479-3 0  9992", "line2": "2 30320  99.1881  42.9600 0085273 303.0972 211.1696 13.98553792963642"}}, "geometry": {"type": "Point", "coordinates": [62.281665206366526, -63.57436928637474]}}, {"type": "Feature", "properties": {"norad_id": 30321, "name": "FENGYUN 1C DEB", "group": "fengyun-1c-debris", "lat": 11.99132630444911, "lon": 164.9470663210958, "alt_km": 828.0785010116697, "timestamp": "2025-12-09T23:33:24.130161+00:00", "meta": {"OBJECT_NAME": "FENGYUN 1C DEB", "OBJECT_ID": "1999-025AAJ", "EPOCH": "2025-12-09T11:37:29.970624", "MEAN_MOTION": 14.16634896, "ECCENTRICITY": 0.00598859, "INCLINATION": 98.6562, "RA_OF_ASC_NODE": 342.6093, "ARG_OF_PERICENTER": 246.2729, "MEAN_ANOMALY": 268.1448, "EPHEMERIS_TYPE": 0, "CLASSIFICATION_TYPE": "U", "NORAD_CAT_ID": 30321, "ELEMENT_SET_NO": 999, "REV_AT_EPOCH": 97497, "BSTAR": 0.00054282699, "MEAN_MOTION_DOT": 1.059e-05, "MEAN_MOTION_DDOT": 0}, "tle": {"line1": "1 30321U 99025AAJ 25343.48437466  .00001059  00000+0  54283-3 0  9992", "line2": "2 30321  98.6562 342.6093 0059885 246.2729 268.1448 14.16634896974978"}}, "geometry": {"type": "Point", "coordinates": [164.9470663210958, 11.99132630444911]}}, {"type": "Feature", "properties": {"norad_id": 30322, "name": "FENGYUN 1C DEB", "group": "fengyun-1c-debris", "lat": -72.79701220575667, "lon": -129.63213988780632, "alt_km": 795.9504582145146, "timestamp": "2025-12-09T23:33:24.130171+00:00", "meta": {"OBJECT_NAME": "FENGYUN 1C DEB", "OBJECT_ID": "1999-025AAK", "EPOCH": "2025-12-09T13:39:41.493600", "MEAN_MOTION": 14.06075588, "ECCENTRICITY": 0.0126798, "INCLINATION": 98.3982, "RA_OF_ASC_NODE": 201.4863, "ARG_OF_PERICENTER": 262.2115, "MEAN_ANOMALY": 96.4643, "EPHEMERIS_TYPE": 0, "CLASSIFICATION_TYPE": "U", "NORAD_CAT_ID": 30322, "ELEMENT_SET_NO": 999, "REV_AT_EPOCH": 96155, "BSTAR": 0.0021114055, "MEAN_MOTION_DOT": 3.687e-05, "MEAN_MOTION_DDOT": 0}, "tle": {"line1": "1 30322U 99025AAK 25343.56923025  .00003687  00000+0  21114-2 0  9998", "line2": "2 30322  98.3982 201.4863 0126798 262.2115  96.4643 14.06075588961559"}}, "geometry": {"type": "Point", "coordinates": [-129.63213988780632, -72.79701220575667]}}, {"type": "Feature", "properties": {"norad_id": 30325, "name": "FENGYUN 1C DEB", "group": "fengyun-1c-debris", "lat": -73.17128090670535, "lon": 33.960501036605, "alt_km": 859.5919967491564, "timestamp": "2025-12-09T23:33:24.130181+00:00", "meta": {"OBJECT_NAME": "FENGYUN 1C DEB", "OBJECT_ID": "1999-025AAL", "EPOCH": "2025-12-09T11:59:06.609120", "MEAN_MOTION": 14.09102507, "ECCENTRICITY": 0.00151786, "INCLINATION": 98.7331, "RA_OF_ASC_NODE": 2.9499, "ARG_OF_PERICENTER": 262.9901, "MEAN_ANOMALY": 96.9543, "EPHEMERIS_TYPE": 0, "CLASSIFICATION_TYPE": "U", "NORAD_CAT_ID": 30325, "ELEMENT_SET_NO": 999, "REV_AT_EPOCH": 96970, "BSTAR": 0.00018721563, "MEAN_MOTION_DOT": 2.82e-06, "MEAN_MOTION_DDOT": 0}, "tle": {"line1": "1 30325U 99025AAL 25343.49938205  .00000282  00000+0  18722-3 0  9999", "line2": "2 30325  98.7331   2.9499 0015178 262.9901  96.9543 14.09102507969706"}}, "geometry": {"type": "Point", "coordinates": [33.960501036605, -73.17128090670535]}}, {"type": "Feature", "properties": {"norad_id": 30326, "name": "FENGYUN 1C DEB", "group": "fengyun-1c-debris", "lat": 79.76163501861886, "lon": 174.02880868908184, "alt_km": 864.5161226915106, "timestamp": "2025-12-09T23:33:24.130192+00:00", "meta": {"OBJECT_NAME": "FENGYUN 1C DEB", "OBJECT_ID": "1999-025AAM", "EPOCH": "2025-12-09T12:45:41.931648", "MEAN_MOTION": 13.85472783, "ECCENTRICITY": 0.01424759, "INCLINATION": 98.6543, "RA_OF_ASC_NODE": 231.0933, "ARG_OF_PERICENTER": 39.2646, "MEAN_ANOMALY": 321.8742, "EPHEMERIS_TYPE": 0, "CLASSIFICATION_TYPE": "U", "NORAD_CAT_ID": 30326, "ELEMENT_SET_NO": 999, "REV_AT_EPOCH": 95411, "BSTAR": 0.00030413615, "MEAN_MOTION_DOT": 3.36e-06, "MEAN_MOTION_DDOT": 0}, "tle": {"line1": "1 30326U 99025AAM 25343.53173532  .00000336  00000+0  30414-3 0  9991", "line2": "2 30326  98.6543 231.0933 0142475  39.2646 321.8742 13.85472783954110"}}, "geometry": {"type": "Point", "coordinates": [174.02880868908184, 79.76163501861886]}}, {"type": "Feature", "properties": {"norad_id": 30327, "name": "FENGYUN 1C DEB", "group": "fengyun-1c-debris", "lat": -7.984590596826617, "lon": -120.38138864360741, "alt_km": 914.6109286670735, "timestamp": "2025-12-09T23:33:24.130202+00:00", "meta": {"OBJECT_NAME": "FENGYUN 1C DEB", "OBJECT_ID": "1999-025AAN", "EPOCH": "2025-12-09T04:02:10.622400", "MEAN_MOTION": 14.17945688, "ECCENTRICITY": 0.01167464, "INCLINATION": 98.4435, "RA_OF_ASC_NODE": 237.6511, "ARG_OF_PERICENTER": 153.3111, "MEAN_ANOMALY": 9.7278, "EPHEMERIS_TYPE": 0, "CLASSIFICATION_TYPE": "U", "NORAD_CAT_ID": 30327, "ELEMENT_SET_NO": 999, "REV_AT_EPOCH": 96392, "BSTAR": 0.0020084895, "MEAN_MOTION_DOT": 4.356e-05, "MEAN_MOTION_DDOT": 0}, "tle": {"line1": "1 30327U 99025AAN 25343.16817850  .00004356  00000+0  20085-2 0  9997", "line2": "2 30327  98.4435 237.6511 0116746 153.3111   9.7278 14.17945688963920"}}, "geometry": {"type": "Point", "coordinates": [-120.38138864360741, -7.984590596826617]}}, {"type": "Feature", "properties": {"norad_id": 30328, "name": "FENGYUN 1C DEB", "group": "fengyun-1c-debris", "lat": -22.238044808825073, "lon": 170.60279661707753, "alt_km": 853.2390025894174, "timestamp": "2025-12-09T23:33:24.130212+00:00", "meta": {"OBJECT_NAME": "FENGYUN 1C DEB", "OBJECT_ID": "1999-025AAP", "EPOCH": "2025-12-09T12:58:39.154080", "MEAN_MOTION": 14.12471349, "ECCENTRICITY": 0.00056233, "INCLINATION": 98.6865, "RA_OF_ASC_NODE": 353.7592, "ARG_OF_PERICENTER": 160.9335, "MEAN_ANOMALY": 321.2613, "EPHEMERIS_TYPE": 0, "CLASSIFICATION_TYPE": "U", "NORAD_CAT_ID": 30328, "ELEMENT_SET_NO": 999, "REV_AT_EPOCH": 97219, "BSTAR": 0.00021588542, "MEAN_MOTION_DOT": 3.56e-06, "MEAN_MOTION_DDOT": 0}, "tle": {"line1": "1 30328U 99025AAP 25343.54073095  .00000356  00000+0  21589-3 0  9992", "line2": "2 30328  98.6865 353.7592 0005623 160.9335 321.2613 14.12471349972199"}}, "geometry": {"type": "Point", "coordinates": [170.60279661707753, -22.238044808825073]}}, {"type": "Feature", "properties": {"norad_id": 30329, "name": "FENGYUN 1C DEB", "group": "fengyun-1c-debris", "lat": 27.650303378207752, "lon": 88.28551383937052, "alt_km": 971.3891308144011, "timestamp": "2025-12-09T23:33:24.130246+00:00", "meta": {"OBJECT_NAME": "FENGYUN 1C DEB", "OBJECT_ID": "1999-025AAQ", "EPOCH": "2025-12-09T07:49:29.252928", "MEAN_MOTION": 13.86735643, "ECCENTRICITY": 0.0142364, "INCLINATION": 99.2618, "RA_OF_ASC_NODE": 262.7325, "ARG_OF_PERICENTER": 44.6264, "MEAN_ANOMALY": 75.0365, "EPHEMERIS_TYPE": 0, "CLASSIFICATION_TYPE": "U", "NORAD_CAT_ID": 30329, "ELEMENT_SET_NO": 999, "REV_AT_EPOCH": 95363, "BSTAR": 0.00072983, "MEAN_MOTION_DOT": 8.77e-06, "MEAN_MOTION_DDOT": 0}, "tle": {"line1": "1 30329U 99025AAQ 25343.32603302  .00000877  00000+0  72983-3 0  9991", "line2": "2 30329  99.2618 262.7325 0142364  44.6264  75.0365 13.86735643953635"}}, "geometry": {"type": "Point", "coordinates": [88.28551383937052, 27.650303378207752]}}, {"type": "Feature", "properties": {"norad_id": 30330, "name": "FENGYUN 1C DEB", "group": "fengyun-1c-debris", "lat": -52.51834163207838, "lon": 144.72197090629854, "alt_km": 858.7935280221827, "timestamp": "2025-12-09T23:33:24.130257+00:00", "meta": {"OBJECT_NAME": "FENGYUN 1C DEB", "OBJECT_ID": "1999-025AAR", "EPOCH": "2025-12-08T22:26:48.909120", "MEAN_MOTION": 13.82042353, "ECCENTRICITY": 0.0187562, "INCLINATION": 98.8859, "RA_OF_ASC_NODE": 335.507, "ARG_OF_PERICENTER": 195.0549, "MEAN_ANOMALY": 234.299, "EPHEMERIS_TYPE": 0, "CLASSIFICATION_TYPE": "U", "NORAD_CAT_ID": 30330, "ELEMENT_SET_NO": 999, "REV_AT_EPOCH": 94605, "BSTAR": 0.0016076, "MEAN_MOTION_DOT": 1.936e-05, "MEAN_MOTION_DDOT": 0}, "tle": {"line1": "1 30330U 99025AAR 25342.93528830  .00001936  00000+0  16076-2 0  9998", "line2": "2 30330  98.8859 335.5070 0187562 195.0549 234.2990 13.82042353946057"}}, "geometry": {"type": "Point", "coordinates": [144.72197090629854, -52.51834163207838]}}, {"type": "Feature", "properties": {"norad_id": 30331, "name": "FENGYUN 1C DEB", "group": "fengyun-1c-debris", "lat": -55.03884234375771, "lon": 31.6618535428507, "alt_km": 885.4792515596428, "timestamp": "2025-12-09T23:33:24.130268+00:00", "meta": {"OBJECT_NAME": "FENGYUN 1C DEB", "OBJECT_ID": "1999-025AAS", "EPOCH": "2025-12-09T08:27:35.187840", "MEAN_MOTION": 13.97824595, "ECCENTRICITY": 0.00965938, "INCLINATION": 98.9572, "RA_OF_ASC_NODE": 18.0119, "ARG_OF_PERICENTER": 17.315, "MEAN_ANOMALY": 4.0424, "EPHEMERIS_TYPE": 0, "CLASSIFICATION_TYPE": "U", "NORAD_CAT_ID": 30331, "ELEMENT_SET_NO": 999, "REV_AT_EPOCH": 96072, "BSTAR": 0.00061047556, "MEAN_MOTION_DOT": 8.56e-06, "MEAN_MOTION_DDOT": 0}, "tle": {"line1": "1 30331U 99025AAS 25343.35249060  .00000856  00000+0  61048-3 0  9991", "line2": "2 30331  98.9572  18.0119 0096593  17.3150   4.0424 13.97824595960722"}}, "geometry": {"type": "Point", "coordinates": [31.6618535428507, -55.03884234375771]}}]}